[{"OBJECT_ID":"2001-012A","OBJECT_NAME":"XM-2","NORAD_CAT_ID":"26724","OBJECT_TYPE":"PAYLOAD","PERIOD":"1453.309","INCLINATION":"1.5254","APOGEE":"36141.632","PERIGEE":"36104.036","ECCENTRICITY":"0.0004423","MEAN_MOTION":"0.99084223","TLE_LINE1":"1 26724U 01012A   16237.39650829 -.00000265  00000-0  00000+0 0  9999","TLE_LINE2":"2 26724   1.5254  79.8079 0004423 349.9609  10.5779  0.99084223 56527","LAUNCH_DATE":"2001-03-18","LAUNCH_SITE":"SEA LAUNCH","OWNER":"UNITED STATES OF AMERICA","ORBIT_TYPE":"Geosynchronous","OPERATIONAL_STATUS":"Nonoperational","satInfo":{"lng":72.24246190628888,"lat":2.412872655125854,"elevation":-6.145721725416388,"azimuth":242.7575380937111,"range":42690.83043749663,"height":36104.96980939996,"velocity":3.0638336018804413},"x":288,"y":-88,"dx":0.9344373783261922,"dy":2.9178593396527104},{"OBJECT_ID":"2001-012B","OBJECT_NAME":"BLOCK DM-SL R/B","NORAD_CAT_ID":"26725","OBJECT_TYPE":"ROCKET BODY","PERIOD":"644.082","INCLINATION":"0.7014","APOGEE":"35757.724","PERIGEE":"896.355","ECCENTRICITY":"0.7055479","MEAN_MOTION":"2.23573776","TLE_LINE1":"1 26725U 01012B   16239.42840433 -.00000252  00000-0  86986-3 0  9995","TLE_LINE2":"2 26725   0.7014 170.3362 7055479 168.3659   8.3146  2.23573776126141","LAUNCH_DATE":"2001-03-18","LAUNCH_SITE":"SEA LAUNCH","OWNER":"SEA LAUNCH DEMO","ORBIT_TYPE":"Highly Elliptical Orbit","OPERATIONAL_STATUS":"N/A, derelict rocket body","satInfo":{"lng":150.81696104613422,"lat":1.828432556182725,"elevation":-7.605593918403864,"azimuth":164.18303895386578,"range":38772.35172631483,"height":32072.6752414359,"velocity":2.1442035105754806},"x":130,"y":223,"dx":-1.872032164663969,"dy":1.045516269231498},{"OBJECT_ID":"2001-018A","OBJECT_NAME":"XM-1","NORAD_CAT_ID":"26761","OBJECT_TYPE":"PAYLOAD","PERIOD":"1454.468","INCLINATION":"0.4465","APOGEE":"36182.649","PERIGEE":"36108.224","ECCENTRICITY":"0.0008751","MEAN_MOTION":"0.99005233","TLE_LINE1":"1 26761U 01018A   16238.27202336  .00000032  00000-0  00000+0 0  9991","TLE_LINE2":"2 26761   0.4465  89.9757 0008751  92.1067 113.1748  0.99005233 56078","LAUNCH_DATE":"2001-05-08","LAUNCH_SITE":"SEA LAUNCH","OWNER":"UNITED STATES OF AMERICA","ORBIT_TYPE":"Geosynchronous","OPERATIONAL_STATUS":"Nonoperational","satInfo":{"lng":19.801154865246613,"lat":-1.1268651894714816,"elevation":-9.595755971216908,"azimuth":295.19884513475336,"range":43151.693907321394,"height":36178.01718981818,"velocity":3.0593104066144154},"x":101,"y":-272,"dx":2.87842543929967,"dy":1.036362462853495},{"OBJECT_ID":"2001-018B","OBJECT_NAME":"BLOCK DM-SL R/B","NORAD_CAT_ID":"26762","OBJECT_TYPE":"ROCKET BODY","PERIOD":"643.306","INCLINATION":"1.039","APOGEE":"35709.034","PERIGEE":"905.323","ECCENTRICITY":"0.7049477","MEAN_MOTION":"2.23843647","TLE_LINE1":"1 26762U 01018B   16238.43829903 -.00000120  00000-0  20000-2 0  9999","TLE_LINE2":"2 26762   1.0390 271.9051 7049477  97.4386   8.1546  2.23843647125133","LAUNCH_DATE":"2001-05-08","LAUNCH_SITE":"SEA LAUNCH","OWNER":"SEA LAUNCH DEMO","ORBIT_TYPE":"Highly Elliptical Orbit","OPERATIONAL_STATUS":"N/A, derelict rocket body","satInfo":{"lng":-120.15213974674023,"lat":0.19350175302388814,"elevation":-13.58425200458588,"azimuth":75.15213974674023,"range":26693.512624828007,"height":19568.788185806065,"velocity":3.817392165099804},"x":-145,"y":78,"dx":-1.9174677857391917,"dy":-3.3008787061656495},{"OBJECT_ID":"2001-019A","OBJECT_NAME":"INTELSAT 10 (PAS 10)","NORAD_CAT_ID":"26766","OBJECT_TYPE":"PAYLOAD","PERIOD":"1436.072","INCLINATION":"0.9002","APOGEE":"35791.341","PERIGEE":"35780.901","ECCENTRICITY":"0.0001238","MEAN_MOTION":"1.00273481","TLE_LINE1":"1 26766U 01019A   16239.18088193  .00000098  00000-0  00000+0 0  9993","TLE_LINE2":"2 26766   0.9002  86.5745 0001238  98.2120 262.6801  1.00273481 56014","LAUNCH_DATE":"2001-05-15","LAUNCH_SITE":"TYURATAM MISSILE AND SPACE COMPLEX","OWNER":"UNITED STATES OF AMERICA","ORBIT_TYPE":"Geosynchronous","OPERATIONAL_STATUS":"Operational","satInfo":{"lng":100.25336429913823,"lat":2.8011334384115565,"elevation":-5.829753347678217,"azimuth":214.74663570086176,"range":42324.78962428961,"height":35778.071451855234,"velocity":3.075067999308103},"x":295,"y":50,"dx":-0.5473661819218467,"dy":3.025959924264867},{"OBJECT_ID":"2001-024A","OBJECT_NAME":"INTELSAT 901","NORAD_CAT_ID":"26824","OBJECT_TYPE":"PAYLOAD","PERIOD":"1436.094","INCLINATION":"0.0589","APOGEE":"35798.070","PERIGEE":"35775.014","ECCENTRICITY":"0.0002734","MEAN_MOTION":"1.0027198","TLE_LINE1":"1 26824U 01024A   16239.00322626 -.00000169  00000-0  00000+0 0  9997","TLE_LINE2":"2 26824   0.0589 289.4474 0002734 238.8993 149.4875  1.00271980 55671","LAUNCH_DATE":"2001-06-09","LAUNCH_SITE":"FRENCH GUIANA","OWNER":"INTERNATIONAL TELECOMMUNICATIONS SATELLITE ORGANIZATION (INTELSAT)","ORBIT_TYPE":"Geosynchronous","OPERATIONAL_STATUS":"Operational","satInfo":{"lng":-109.2898919250322,"lat":0.30283125026682917,"elevation":-8.284390312555509,"azimuth":64.2898919250322,"range":42576.209945813185,"height":35754.38153399979,"velocity":3.07586800502066},"x":-287,"y":94,"dx":-1.0161064837598737,"dy":-2.903186455943008},{"OBJECT_ID":"2001-025A","OBJECT_NAME":"ASTRA 2C","NORAD_CAT_ID":"26853","OBJECT_TYPE":"PAYLOAD","PERIOD":"1436.103","INCLINATION":"0.097","APOGEE":"35800.070","PERIGEE":"35773.380","ECCENTRICITY":"0.0003165","MEAN_MOTION":"1.00271327","TLE_LINE1":"1 26853U 01025A   16238.95478243 +.00000019 +00000-0 +00000-0 0  9994","TLE_LINE2":"2 26853 000.0970 290.5628 0003165 229.4018 218.6717 01.00271327009144","LAUNCH_DATE":"2001-06-16","LAUNCH_SITE":"TYURATAM MISSILE AND SPACE COMPLEX","OWNER":"SOCIÉTÉ EUROPÉENNE DES SATELLITES","ORBIT_TYPE":"Geosynchronous","OPERATIONAL_STATUS":"Operational","satInfo":{"lng":89.9281253357571,"lat":-0.9356759292557865,"elevation":-9.488005613541953,"azimuth":225.0718746642429,"range":42737.30450347727,"height":35780.14255151809,"velocity":3.0751559747361625},"x":300,"y":-1,"dx":0.0038576269855780066,"dy":3.0751535551366467},{"OBJECT_ID":"2001-039A","OBJECT_NAME":"INTELSAT 902","NORAD_CAT_ID":"26900","OBJECT_TYPE":"PAYLOAD","PERIOD":"1436.078","INCLINATION":"0.0159","APOGEE":"35798.778","PERIGEE":"35773.699","ECCENTRICITY":"0.0002974","MEAN_MOTION":"1.00273061","TLE_LINE1":"1 26900U 01039A   16239.03591009  .00000005  00000-0  00000+0 0  9992","TLE_LINE2":"2 26900   0.0159 103.0047 0002974  54.9703 251.6618  1.00273061 54850","LAUNCH_DATE":"2001-08-30","LAUNCH_SITE":"FRENCH GUIANA","OWNER":"INTERNATIONAL TELECOMMUNICATIONS SATELLITE ORGANIZATION (INTELSAT)","ORBIT_TYPE":"Geosynchronous","OPERATIONAL_STATUS":"Operational","satInfo":{"lng":88.28325357024364,"lat":1.2271344869830216,"elevation":-7.374464313615059,"azimuth":226.71674642975637,"range":42501.0285713693,"height":35781.002127160864,"velocity":3.0751229865253333},"x":300,"y":-9,"dx":0.09212574758713125,"dy":3.0737427070085093},{"OBJECT_ID":"2001-042A","OBJECT_NAME":"EUTE 8 WEST A (AB 2)","NORAD_CAT_ID":"26927","OBJECT_TYPE":"PAYLOAD","PERIOD":"1436.095","INCLINATION":"0.08","APOGEE":"35805.309","PERIGEE":"35767.833","ECCENTRICITY":"0.0004444","MEAN_MOTION":"1.00271876","TLE_LINE1":"1 26927U 01042A   16238.81412957 -.00000128  00000-0  00000+0 0  9991","TLE_LINE2":"2 26927   0.0800  40.2110 0004444 120.7354  94.1224  1.00271876 54601","LAUNCH_DATE":"2001-09-25","LAUNCH_SITE":"FRENCH GUIANA","OWNER":"EUROPEAN TELECOMMUNICATIONS SATELLITE ORGANIZATION (EUTELSAT)","ORBIT_TYPE":"Geosynchronous","OPERATIONAL_STATUS":"Operational","satInfo":{"lng":-172.77475821860668,"lat":-0.36321789790564246,"elevation":-8.933443208364332,"azimuth":127.77475821860665,"range":42656.421491863664,"height":35761.68212944842,"velocity":3.076150799646136},"x":-40,"y":283,"dx":-3.051724283406449,"dy":-0.38688840798214197},{"OBJECT_ID":"2001-052A","OBJECT_NAME":"DIRECTV 4S","NORAD_CAT_ID":"26985","OBJECT_TYPE":"PAYLOAD","PERIOD":"1436.101","INCLINATION":"0.0424","APOGEE":"35795.510","PERIGEE":"35777.852","ECCENTRICITY":"0.0002094","MEAN_MOTION":"1.00271483","TLE_LINE1":"1 26985U 01052A   16238.48332910 -.00000139 +00000-0 +00000-0 0  9992","TLE_LINE2":"2 26985 000.0424 285.4786 0002094 252.1909 229.3002 01.00271483015409","LAUNCH_DATE":"2001-11-27","LAUNCH_SITE":"FRENCH GUIANA","OWNER":"UNITED STATES OF AMERICA","ORBIT_TYPE":"Geosynchronous","OPERATIONAL_STATUS":"Operational","satInfo":{"lng":-105.1833357978428,"lat":0.6199793476322756,"elevation":-7.9676621508010035,"azimuth":60.18333579784278,"range":42573.82843269618,"height":35787.16928565143,"velocity":3.0747047958597187},"x":-294,"y":74,"dx":-0.8052913122482354,"dy":-2.967375184249587},{"OBJECT_ID":"2002-002A","OBJECT_NAME":"INSAT 3C","NORAD_CAT_ID":"27298","OBJECT_TYPE":"PAYLOAD","PERIOD":"1436.105","INCLINATION":"0.0153","APOGEE":"35803.369","PERIGEE":"35770.177","ECCENTRICITY":"0.0003936","MEAN_MOTION":"1.00271156","TLE_LINE1":"1 27298U 02002A   16238.86269574 -.00000104 +00000-0 +00000-0 0  9995","TLE_LINE2":"2 27298 000.0153 126.2727 0003936 005.8586 226.9576 01.00271156053489","LAUNCH_DATE":"2002-01-23","LAUNCH_SITE":"FRENCH GUIANA","OWNER":"INDIA","ORBIT_TYPE":"Geosynchronous","OPERATIONAL_STATUS":"Operational","satInfo":{"lng":76.60863275357707,"lat":-0.10423497474721403,"elevation":-8.678011888423153,"azimuth":238.39136724642293,"range":42640.964272534125,"height":35774.73734028313,"velocity":3.0755404629331022},"x":292,"y":-66,"dx":0.7122992701371837,"dy":2.99191893087042}]